[{"OBJECT_NAME":"STARLINK-34232","OBJECT_ID":"2025-161E","EPOCH":"2026-03-09T20:39:04.164768","MEAN_MOTION":15.30210708,"ECCENTRICITY":0.00011959,"INCLINATION":53.159,"RA_OF_ASC_NODE":293.58,"ARG_OF_PERICENTER":120.4385,"MEAN_ANOMALY":239.6734,"EPHEMERIS_TYPE":0,"CLASSIFICATION_TYPE":"U","NORAD_CAT_ID":65019,"ELEMENT_SET_NO":999,"REV_AT_EPOCH":3546,"BSTAR":0.00084065762,"MEAN_MOTION_DOT":0.00024629,"MEAN_MOTION_DDOT":0},{"OBJECT_NAME":"CZ-2C R\/B","OBJECT_ID":"2024-218A","EPOCH":"2026-03-09T22:16:31.791072","MEAN_MOTION":15.22960743,"ECCENTRICITY":0.00453409,"INCLINATION":97.5416,"RA_OF_ASC_NODE":83.973,"ARG_OF_PERICENTER":359.5317,"MEAN_ANOMALY":0.5869,"EPHEMERIS_TYPE":0,"CLASSIFICATION_TYPE":"U","NORAD_CAT_ID":62078,"ELEMENT_SET_NO":999,"REV_AT_EPOCH":7134,"BSTAR":0.00039378379,"MEAN_MOTION_DOT":9.445e-5,"MEAN_MOTION_DDOT":0}]
